ORBCOMM-X               
1 21576U 91050C   25192.91919137  .00000195  00000+0  70597-4 0  9991
2 21576  98.3426 259.0138 0004870 107.7939 252.3783 14.43277056785681
ORBCOMM FM01            
1 23545U 95017A   25192.90181180  .00003122  00000+0  32978-3 0  9997
2 23545  69.9635  12.4958 0005471 268.7283  91.3245 14.90269471616191
ORBCOMM FM02            
1 23546U 95017B   25192.76281787  .00003647  00000+0  37513-3 0  9998
2 23546  69.9645  32.1540 0006870 269.5156  90.5211 14.91173837615825
ORBCOMM FM08            
1 25112U 97084A   25193.19351531  .00000682  00000+0  23074-3 0  9991
2 25112  45.0133 247.8194 0005445 350.8083   9.2668 14.45864061445169
ORBCOMM FM10            
1 25113U 97084B   25192.90187083  .00000526  00000+0  18796-3 0  9991
2 25113  45.0146 251.6431 0005448 310.9809  49.0570 14.45650107620092
ORBCOMM FM11            
1 25114U 97084C   25192.84158300  .00000584  00000+0  20516-3 0  9992
2 25114  45.0132 252.6101 0006101 315.4992  44.5369 14.45400302445049
ORBCOMM FM12            
1 25115U 97084D   25193.21840898  .00000616  00000+0  21416-3 0  9991
2 25115  45.0139 250.5498 0005346 310.3455  49.6929 14.45421395445134
ORBCOMM FM09            
1 25116U 97084E   25192.49253499  .00000543  00000+0  19407-3 0  9992
2 25116  45.0144 254.9892 0006886 304.0724  55.9473 14.45294934444990
